NORAD_CAT_ID,OBJECT_NAME,OBJECT_TYPE,EPOCH,MEAN_MOTION,ECCENTRICITY,INCLINATION,RA_OF_ASC_NODE,ARG_OF_PERICENTER,MEAN_ANOMALY,BSTAR,MEAN_MOTION_DOT,MEAN_MOTION_DDOT,TLE_LINE0,TLE_LINE1,TLE_LINE2,SEMIMAJOR_AXIS,PERIOD,APOGEE,PERIGEE,DECAYED
53288.0,STARLINK-4162,PAYLOAD,2024-08-17 04:43:24,15.08838917,0.0001825,53.216,220.6731,86.2304,273.8897,3.6529e-05,2.93e-06,0.0,0 STARLINK-4162,1 53288U 22086AY  24230.19681284  .00000293  00000-0  36529-4 0  9997,2 53288  53.2160 220.6731 0001825  86.2304 273.8897 15.08838917115219,6917.884,95.438,541.011,538.486,0.0
53288.0,STARLINK-4162,PAYLOAD,2024-08-18 04:34:11,15.08842755,0.0001728,53.2153,216.2122,111.4011,248.7165,0.00012418,1.689e-05,0.0,0 STARLINK-4162,1 53288U 22086AY  24231.19040780  .00001689  00000-0  12418-3 0  9998,2 53288  53.2153 216.2122 0001728 111.4011 248.7165 15.08842755115207,6917.872,95.437,540.932,538.542,0.0
53288.0,STARLINK-4162,PAYLOAD,2024-08-18 09:20:20,15.08839413,0.0001636,53.2152,215.3245,107.6729,252.4442,3.569e-05,2.8e-06,0.0,0 STARLINK-4162,1 53288U 22086AY  24231.38912956  .00000280  00000-0  35690-4 0  9996,2 53288  53.2152 215.3245 0001636 107.6729 252.4442 15.08839413115390,6917.882,95.438,540.879,538.615,0.0
53288.0,STARLINK-4162,PAYLOAD,2024-08-19 06:00:22,15.08825782,0.0001538,53.2164,211.4562,104.7838,255.3325,8.0817e-05,9.98e-06,0.0,0 STARLINK-4162,1 53288U 22086AY  24232.25026171  .00000998  00000-0  80817-4 0  9995,2 53288  53.2164 211.4562 0001538 104.7838 255.3325 15.08825782115365,6917.924,95.438,540.853,538.725,0.0
53288.0,STARLINK-4162,PAYLOAD,2024-08-19 09:11:08,15.08841375,0.0001365,53.2163,210.8604,91.3699,268.745,-8.9648e-05,-1.714e-05,0.0,0 STARLINK-4162,1 53288U 22086AY  24232.38273623 -.00001714  00000-0 -89648-4 0  9995,2 53288  53.2163 210.8604 0001365  91.3699 268.7450 15.08841375115383,6917.876,95.437,540.685,538.797,0.0
53288.0,STARLINK-4162,PAYLOAD,2024-08-20 07:26:32,15.08837836,0.0001417,53.2157,206.6968,95.4252,264.6901,0.00014446,2.012e-05,0.0,0 STARLINK-4162,1 53288U 22086AY  24233.31009507  .00002012  00000-0  14446-3 0  9990,2 53288  53.2157 206.6968 0001417  95.4252 264.6901 15.08837836115686,6917.887,95.438,540.732,538.772,0.0
53288.0,STARLINK-4162,PAYLOAD,2024-08-21 04:06:33,15.08839017,0.0001434,53.2157,202.8312,95.4829,264.6327,0.00011274,1.507e-05,0.0,0 STARLINK-4162,1 53288U 22086AY  24234.17121835  .00001507  00000-0  11274-3 0  9998,2 53288  53.2157 202.8312 0001434  95.4829 264.6327 15.08839017115658,6917.883,95.438,540.74,538.756,0.0
53288.0,STARLINK-4162,PAYLOAD,2024-08-21 07:17:19,15.08840017,0.0001423,53.2157,202.2364,95.2709,264.8445,0.00011796,1.59e-05,0.0,0 STARLINK-4162,1 53288U 22086AY  24234.30369789  .00001590  00000-0  11796-3 0  9996,2 53288  53.2157 202.2364 0001423  95.2709 264.8445 15.08840017115837,6917.88,95.438,540.73,538.761,0.0
